start=new Date('2021-12-31T00:00:00.000Z').valueOf();
sats=[{"ECCENTRICITY":"0.00064200","MEAN_ELEMENT_THEORY":"SGP4","EPHEMERIS_TYPE":"0","INCLINATION":"53.0530","SEMIMAJOR_AXIS":"6925.370","CLASSIFICATION_TYPE":"U","REF_FRAME":"TEME","ELEMENT_SET_NO":"999","RA_OF_ASC_NODE":"229.1337","OBJECT_ID":"2021-017S","OBJECT_NAME":"STARLINK-2149","SITE":"AFETR","OBJECT_TYPE":"PAYLOAD","TLE_LINE2":"2 47738  53.0530 229.1337 0006420  94.5810 265.5913 15.06392997 47343","TLE_LINE1":"1 47738U 21017S   21364.89686813 -.00000079  00000-0  13760-4 0  9993","TIME_SYSTEM":"UTC","DECAY_DATE":null,"PERIOD":"95.593","COUNTRY_CODE":"US","CENTER_NAME":"EARTH","MEAN_MOTION":"15.06392997","ARG_OF_PERICENTER":"94.5810","GP_ID":"192793947","MEAN_MOTION_DDOT":"0.0000000000000","EPOCH":"2021-12-30T21:31:29.406432","NORAD_CAT_ID":"47738","REV_AT_EPOCH":"4734","RCS_SIZE":"LARGE","BSTAR":"0.00001376000000","PERIAPSIS":"542.789","MEAN_MOTION_DOT":"-0.00000079","LAUNCH_DATE":"2021-03-04","APOAPSIS":"551.681","MEAN_ANOMALY":"265.5913","FILE":"3255240"},{"MEAN_MOTION":"15.06399932","COUNTRY_CODE":"US","CENTER_NAME":"EARTH","PERIOD":"95.592","TIME_SYSTEM":"UTC","TLE_LINE1":"1 47739U 21017T   21364.94430599  .00001398  00000-0  11272-3 0  9997","DECAY_DATE":null,"GP_ID":"192793698","MEAN_MOTION_DDOT":"0.0000000000000","ARG_OF_PERICENTER":"59.7552","NORAD_CAT_ID":"47739","EPOCH":"2021-12-30T22:39:48.037536","APOAPSIS":"548.376","LAUNCH_DATE":"2021-03-04","FILE":"3255240","MEAN_ANOMALY":"300.3602","RCS_SIZE":"LARGE","REV_AT_EPOCH":"4700","MEAN_MOTION_DOT":"0.00001398","PERIAPSIS":"546.052","BSTAR":"0.00011272000000","MEAN_ELEMENT_THEORY":"SGP4","ECCENTRICITY":"0.00016780","EPHEMERIS_TYPE":"0","SEMIMAJOR_AXIS":"6925.349","INCLINATION":"53.0541","CLASSIFICATION_TYPE":"U","OBJECT_ID":"2021-017T","OBJECT_NAME":"STARLINK-2150","ELEMENT_SET_NO":"999","REF_FRAME":"TEME","RA_OF_ASC_NODE":"253.9167","OBJECT_TYPE":"PAYLOAD","TLE_LINE2":"2 47739  53.0541 253.9167 0001678  59.7552 300.3602 15.06399932 47000","SITE":"AFETR"},{"NORAD_CAT_ID":"47740","EPOCH":"2021-12-30T22:12:36.437472","GP_ID":"192794949","MEAN_MOTION_DDOT":"0.0000000000000","ARG_OF_PERICENTER":"70.0891","MEAN_MOTION":"15.06392415","CENTER_NAME":"EARTH","COUNTRY_CODE":"US","PERIOD":"95.593","DECAY_DATE":null,"TIME_SYSTEM":"UTC","TLE_LINE1":"1 47740U 21017U   21364.92542173 -.00001334  00000-0 -70672-4 0  9991","FILE":"3255240","MEAN_ANOMALY":"290.0298","APOAPSIS":"548.524","LAUNCH_DATE":"2021-03-04","MEAN_MOTION_DOT":"-0.00001334","PERIAPSIS":"545.950","BSTAR":"-0.00007067200000","RCS_SIZE":"LARGE","REV_AT_EPOCH":"4720","CLASSIFICATION_TYPE":"U","SEMIMAJOR_AXIS":"6925.372","INCLINATION":"53.0534","EPHEMERIS_TYPE":"0","MEAN_ELEMENT_THEORY":"SGP4","ECCENTRICITY":"0.00018580","OBJECT_TYPE":"PAYLOAD","TLE_LINE2":"2 47740  53.0534 239.0075 0001858  70.0891 290.0298 15.06392415 47206","SITE":"AFETR","OBJECT_NAME":"STARLINK-2152","OBJECT_ID":"2021-017U","RA_OF_ASC_NODE":"239.0075","REF_FRAME":"TEME","ELEMENT_SET_NO":"999"},{"EPOCH":"2021-12-30T20:58:18.083424","NORAD_CAT_ID":"47741","ARG_OF_PERICENTER":"67.9395","GP_ID":"192794700","MEAN_MOTION_DDOT":"0.0000000000000","DECAY_DATE":null,"TLE_LINE1":"1 47741U 21017V   21364.87382041 -.00001899  00000-0 -10863-3 0  9993","TIME_SYSTEM":"UTC","COUNTRY_CODE":"US","PERIOD":"95.593","CENTER_NAME":"EARTH","MEAN_MOTION":"15.06388640","BSTAR":"-0.00010863000000","MEAN_MOTION_DOT":"-0.00001899","PERIAPSIS":"545.870","REV_AT_EPOCH":"4715","RCS_SIZE":"LARGE","MEAN_ANOMALY":"292.1805","FILE":"3255240","LAUNCH_DATE":"2021-03-04","APOAPSIS":"548.627","CLASSIFICATION_TYPE":"U","INCLINATION":"53.0527","SEMIMAJOR_AXIS":"6925.383","EPHEMERIS_TYPE":"0","ECCENTRICITY":"0.00019900","MEAN_ELEMENT_THEORY":"SGP4","SITE":"AFETR","OBJECT_TYPE":"PAYLOAD","TLE_LINE2":"2 47741  53.0527 239.2383 0001990  67.9395 292.1805 15.06388640 47150","RA_OF_ASC_NODE":"239.2383","REF_FRAME":"TEME","ELEMENT_SET_NO":"999","OBJECT_NAME":"STARLINK-2154","OBJECT_ID":"2021-017V"},{"REV_AT_EPOCH":"4734","RCS_SIZE":"LARGE","BSTAR":"0.00005930700000","PERIAPSIS":"545.921","MEAN_MOTION_DOT":"0.00000601","LAUNCH_DATE":"2021-03-04","APOAPSIS":"548.607","MEAN_ANOMALY":"284.1233","FILE":"3255240","TLE_LINE1":"1 47742U 21017W   21364.88580476  .00000601  00000-0  59307-4 0  9992","TIME_SYSTEM":"UTC","DECAY_DATE":null,"PERIOD":"95.593","COUNTRY_CODE":"US","CENTER_NAME":"EARTH","MEAN_MOTION":"15.06383538","ARG_OF_PERICENTER":"75.9971","GP_ID":"192793448","MEAN_MOTION_DDOT":"0.0000000000000","EPOCH":"2021-12-30T21:15:33.531264","NORAD_CAT_ID":"47742","REF_FRAME":"TEME","ELEMENT_SET_NO":"999","RA_OF_ASC_NODE":"229.1889","OBJECT_ID":"2021-017W","OBJECT_NAME":"STARLINK-2156","SITE":"AFETR","TLE_LINE2":"2 47742  53.0544 229.1889 0001939  75.9971 284.1233 15.06383538 47349","OBJECT_TYPE":"PAYLOAD","ECCENTRICITY":"0.00019390","MEAN_ELEMENT_THEORY":"SGP4","EPHEMERIS_TYPE":"0","INCLINATION":"53.0544","SEMIMAJOR_AXIS":"6925.399","CLASSIFICATION_TYPE":"U"},{"MEAN_MOTION":"15.06386584","COUNTRY_CODE":"US","PERIOD":"95.593","CENTER_NAME":"EARTH","DECAY_DATE":null,"TIME_SYSTEM":"UTC","TLE_LINE1":"1 47743U 21017X   21364.91160316  .00000237  00000-0  34859-4 0  9994","NORAD_CAT_ID":"47743","EPOCH":"2021-12-30T21:52:42.513024","MEAN_MOTION_DDOT":"0.0000000000000","GP_ID":"192794198","ARG_OF_PERICENTER":"69.6663","FILE":"3255240","MEAN_ANOMALY":"290.4541","APOAPSIS":"548.647","LAUNCH_DATE":"2021-03-04","MEAN_MOTION_DOT":"0.00000237","PERIAPSIS":"545.863","BSTAR":"0.00003485900000","RCS_SIZE":"LARGE","REV_AT_EPOCH":"4732","EPHEMERIS_TYPE":"0","MEAN_ELEMENT_THEORY":"SGP4","ECCENTRICITY":"0.00020100","CLASSIFICATION_TYPE":"U","SEMIMAJOR_AXIS":"6925.390","INCLINATION":"53.0550","OBJECT_NAME":"STARLINK-2157","OBJECT_ID":"2021-017X","RA_OF_ASC_NODE":"229.0537","REF_FRAME":"TEME","ELEMENT_SET_NO":"999","OBJECT_TYPE":"PAYLOAD","TLE_LINE2":"2 47743  53.0550 229.0537 0002010  69.6663 290.4541 15.06386584 47329","SITE":"AFETR"},{"GP_ID":"192794450","MEAN_MOTION_DDOT":"0.0000000000000","ARG_OF_PERICENTER":"70.8436","NORAD_CAT_ID":"47744","EPOCH":"2021-12-30T21:20:51.922176","MEAN_MOTION":"15.06391789","COUNTRY_CODE":"US","PERIOD":"95.593","CENTER_NAME":"EARTH","TIME_SYSTEM":"UTC","TLE_LINE1":"1 47744U 21017Y   21364.88948984  .00000331  00000-0  41161-4 0  9995","DECAY_DATE":null,"APOAPSIS":"548.584","LAUNCH_DATE":"2021-03-04","FILE":"3255240","MEAN_ANOMALY":"289.2763","RCS_SIZE":"LARGE","REV_AT_EPOCH":"4734","MEAN_MOTION_DOT":"0.00000331","PERIAPSIS":"545.894","BSTAR":"0.00004116100000","SEMIMAJOR_AXIS":"6925.374","INCLINATION":"53.0544","CLASSIFICATION_TYPE":"U","MEAN_ELEMENT_THEORY":"SGP4","ECCENTRICITY":"0.00019420","EPHEMERIS_TYPE":"0","OBJECT_TYPE":"PAYLOAD","TLE_LINE2":"2 47744  53.0544 229.1682 0001942  70.8436 289.2763 15.06391789 47347","SITE":"AFETR","OBJECT_ID":"2021-017Y","OBJECT_NAME":"STARLINK-2158","REF_FRAME":"TEME","ELEMENT_SET_NO":"999","RA_OF_ASC_NODE":"229.1682"},{"EPOCH":"2021-12-30T22:01:59.100960","NORAD_CAT_ID":"47745","ARG_OF_PERICENTER":"60.7910","GP_ID":"192795200","MEAN_MOTION_DDOT":"0.0000000000000","PERIOD":"95.592","COUNTRY_CODE":"US","CENTER_NAME":"EARTH","MEAN_MOTION":"15.06400191","DECAY_DATE":null,"TIME_SYSTEM":"UTC","TLE_LINE1":"1 47745U 21017Z   21364.91804515  .00001407  00000-0  11333-3 0  9993","MEAN_ANOMALY":"299.3304","FILE":"3255240","LAUNCH_DATE":"2021-03-04","APOAPSIS":"548.771","BSTAR":"0.00011333000000","PERIAPSIS":"545.655","MEAN_MOTION_DOT":"0.00001407","REV_AT_EPOCH":"4715","RCS_SIZE":"LARGE","CLASSIFICATION_TYPE":"U","INCLINATION":"53.0530","SEMIMAJOR_AXIS":"6925.348","EPHEMERIS_TYPE":"0","ECCENTRICITY":"0.00022500","MEAN_ELEMENT_THEORY":"SGP4","SITE":"AFETR","TLE_LINE2":"2 47745  53.0530 239.0460 0002250  60.7910 299.3304 15.06400191 47155","OBJECT_TYPE":"PAYLOAD","OBJECT_NAME":"STARLINK-2159","OBJECT_ID":"2021-017Z","RA_OF_ASC_NODE":"239.0460","REF_FRAME":"TEME","ELEMENT_SET_NO":"999"},{"MEAN_ELEMENT_THEORY":"SGP4","ECCENTRICITY":"0.00019660","EPHEMERIS_TYPE":"0","SEMIMAJOR_AXIS":"6925.371","INCLINATION":"53.0547","CLASSIFICATION_TYPE":"U","ELEMENT_SET_NO":"999","REF_FRAME":"TEME","RA_OF_ASC_NODE":"239.0540","OBJECT_ID":"2021-017AA","OBJECT_NAME":"STARLINK-2160","TLE_LINE2":"2 47746  53.0547 239.0540 0001966  59.6700 300.4484 15.06392802 47141","OBJECT_TYPE":"PAYLOAD","SITE":"AFETR","TLE_LINE1":"1 47746U 21017AA  21364.91067559  .00001654  00000-0  12995-3 0  9992","TIME_SYSTEM":"UTC","DECAY_DATE":null,"MEAN_MOTION":"15.06392802","CENTER_NAME":"EARTH","COUNTRY_CODE":"US","PERIOD":"95.593","GP_ID":"192793948","MEAN_MOTION_DDOT":"0.0000000000000","ARG_OF_PERICENTER":"59.6700","NORAD_CAT_ID":"47746","EPOCH":"2021-12-30T21:51:22.370976","RCS_SIZE":"LARGE","REV_AT_EPOCH":"4714","MEAN_MOTION_DOT":"0.00001654","PERIAPSIS":"545.874","BSTAR":"0.00012995000000","APOAPSIS":"548.597","LAUNCH_DATE":"2021-03-04","FILE":"3255240","MEAN_ANOMALY":"300.4484"},{"OBJECT_NAME":"STARLINK-2161","OBJECT_ID":"2021-017AB","RA_OF_ASC_NODE":"229.0862","REF_FRAME":"TEME","ELEMENT_SET_NO":"999","OBJECT_TYPE":"PAYLOAD","TLE_LINE2":"2 47747  53.0543 229.0862 0002170  67.3211 292.8007 15.06395481 47326","SITE":"AFETR","EPHEMERIS_TYPE":"0","MEAN_ELEMENT_THEORY":"SGP4","ECCENTRICITY":"0.00021700","CLASSIFICATION_TYPE":"U","SEMIMAJOR_AXIS":"6925.362","INCLINATION":"53.0543","FILE":"3255240","MEAN_ANOMALY":"292.8007","APOAPSIS":"548.730","LAUNCH_DATE":"2021-03-04","MEAN_MOTION_DOT":"0.00002256","PERIAPSIS":"545.725","BSTAR":"0.00017033000000","RCS_SIZE":"LARGE","REV_AT_EPOCH":"4732","MEAN_MOTION":"15.06395481","COUNTRY_CODE":"US","CENTER_NAME":"EARTH","PERIOD":"95.592","DECAY_DATE":null,"TIME_SYSTEM":"UTC","TLE_LINE1":"1 47747U 21017AB  21364.90792874  .00002256  00000-0  17033-3 0  9994","NORAD_CAT_ID":"47747","EPOCH":"2021-12-30T21:47:25.043136","MEAN_MOTION_DDOT":"0.0000000000000","GP_ID":"192793699","ARG_OF_PERICENTER":"67.3211"}];
